ONEWEB-0584             
1 54651U 22166K   23280.86634346  .00000127  00000+0  27593-3 0  9991
2 54651  87.9183  79.7399 0001741 106.0922 254.0404 13.21820928 41613
ONEWEB-0585             
1 54652U 22166L   23280.88945611  .00000038  00000+0  59459-4 0  9992
2 54652  87.9185  79.7370 0001950  87.2255 272.9102 13.21826709 41624
ONEWEB-0586             
1 54653U 22166M   23280.90209587 -.00000003  00000+0 -37727-4 0  9999
2 54653  87.9162  79.7789 0001992 100.5963 259.5395 13.21821769 41621
ONEWEB-0587             
1 54654U 22166N   23280.91261695  .00001388  00000+0  33276-2 0  9997
2 54654  87.9176  79.7229 0001504  71.2078 288.9219 13.21842542 41786
ONEWEB-0589             
1 54655U 22166P   23280.89998043  .00000561  00000+0  13268-2 0  9990
2 54655  87.9184  79.7387 0001941 136.5096 223.6192 13.21831043 41646
ONEWEB-0590             
1 54656U 22166Q   23280.84952574  .00000010  00000+0 -81792-5 0  9995
2 54656  87.9185  79.7563 0001636  85.8930 274.2391 13.21828291 41620
ONEWEB-0591             
1 54657U 22166R   23280.86211690 -.00000188  00000+0 -48792-3 0  9993
2 54657  87.9187  79.7522 0001631  98.2196 261.9123 13.21825375 41654
ONEWEB-0592             
1 54658U 22166S   23280.86424345  .00000085  00000+0  17339-3 0  9994
2 54658  87.9178  79.7345 0001581 101.1819 258.9493 13.21824473 41539
ONEWEB-0593             
1 54659U 22166T   23280.88737872 -.00000333  00000+0 -83867-3 0  9996
2 54659  87.9184  79.7385 0001996  94.4271 265.7091 13.21823980 41641
ONEWEB-0594             
1 54660U 22166U   23280.90628384 -.00000050  00000+0 -15346-3 0  9991
2 54660  87.9185  79.7331 0001942  89.4201 270.7156 13.21824200 41669
ONEWEB-0595             
1 54661U 22166V   23280.88316633  .00000064  00000+0  12337-3 0  9990
2 54661  87.9181  79.7306 0001577  82.4510 277.6803 13.21826051 41636
ONEWEB-0596             
1 54662U 22166W   23280.85791952  .00000033  00000+0  49445-4 0  9996
2 54662  87.9183  79.7369 0001520 106.4354 253.6947 13.21823965 41633
ONEWEB-0597             
1 54663U 22166X   23280.91469032  .00000008  00000+0 -11734-4 0  9998
2 54663  87.9183  79.7267 0001928 103.3417 256.7932 13.21824524 41640
ONEWEB-0600             
1 54664U 22166Y   23280.89577171 -.00000030  00000+0 -10480-3 0  9992
2 54664  87.9186  79.7790 0001899 100.1734 259.9614 13.21827203 41615
ONEWEB-0601             
1 54665U 22166Z   23280.88841631  .00000035  00000+0  52352-4 0  9995
2 54665  87.9185  79.7314 0001398 106.7984 253.3303 13.21829534 41803
ONEWEB-0602             
1 54666U 22166AA  23280.85582179  .00000048  00000+0  84098-4 0  9998
2 54666  87.9184  79.7454 0001768 101.4707 258.6626 13.21826201 41640
ONEWEB-0603             
1 54667U 22166AB  23280.86003282  .00000103  00000+0  21817-3 0  9994
2 54667  87.9185  79.7407 0001919 110.5372 249.5968 13.21826417 41576
ONEWEB-0604             
1 54668U 22166AC  23280.84741533  .00000008  00000+0 -11993-4 0  9991
2 54668  87.9179  79.7414 0002228 106.7642 253.3736 13.21829624 41534
ONEWEB-0605             
1 54669U 22166AD  23280.91680530  .00000007  00000+0 -15565-4 0  9997
2 54669  87.9192  79.7497 0001444 107.8477 252.2814 13.21824324 41614
ONEWEB-0606             
1 54670U 22166AE  23280.86319049  .00001426  00000+0  34209-2 0  9996
2 54670  87.9188  79.7482 0001438  76.0115 284.1179 13.21823215 41665
ONEWEB-0607             
1 54671U 22166AF  23280.90418463 -.00000028  00000+0 -99835-4 0  9999
2 54671  87.9177  79.7298 0001770 100.7782 259.3551 13.21823832 41644
ONEWEB-0608             
1 54672U 22166AG  23280.91046813  .00001699  00000+0  40798-2 0  9992
2 54672  87.9176  79.7297 0001116 132.9383 227.1844 13.21842603 41657
ONEWEB-0610             
1 54673U 22166AH  23280.89156515  .00000005  00000+0 -18670-4 0  9998
2 54673  87.9190  79.7348 0001732 114.4292 245.7022 13.21824561 41555
ONEWEB-0611             
1 54674U 22166AJ  23280.88526597  .00000005  00000+0 -19064-4 0  9997
2 54674  87.9187  79.7384 0001929  77.6345 282.5005 13.21824370 41546
ONEWEB-0612             
1 54675U 22166AK  23280.89787802  .00000013  00000+0 -17917-6 0  9993
2 54675  87.9180  79.7282 0001463 103.5803 256.5494 13.21825820 41531
ONEWEB-0615             
1 54676U 22166AL  23280.87894735 -.00000019  00000+0 -78340-4 0  9998
2 54676  87.9192  79.7442 0001846  97.8817 262.2526 13.21823560 41548
ONEWEB-0655             
1 54677U 22166AM  23280.85369428 -.00003085  00000+0 -75030-2 0  9990
2 54677  87.9182  79.7572 0001643  92.0613 268.0709 13.21839043 41537
ONEWEB-0659             
1 54678U 22166AN  23280.87055338  .00000033  00000+0  48089-4 0  9999
2 54678  87.9162  79.7815 0001572  80.9743 279.1569 13.21826727 41629
ONEWEB-0685             
1 54679U 22166AP  23280.87263990  .00000049  00000+0  87654-4 0  9993
2 54679  87.9190  79.7454 0002305 113.8688 246.2688 13.21825123 41513
ONEWEB-0712             
1 54680U 22166AQ  23280.91850838  .00000029  00000+0  42065-4 0  9998
2 54680  87.9079  64.4184 0001883  81.3169 278.8175 13.16596896 42671
ONEWEB-0714             
1 54681U 22166AR  23280.87684275 -.00000016  00000+0 -70069-4 0  9997
2 54681  87.9181  79.7344 0001942 101.2006 258.9346 13.21823657 41639
ONEWEB-0532             
1 55140U 23004A   23280.81092669  .00000050  00000+0  95650-4 0  9993
2 55140  87.9252 201.2794 0001009  86.7195 273.4052 13.17652918 38086
ONEWEB-0533             
1 55141U 23004B   23280.76070453  .00000050  00000+0  84677-4 0  9992
2 55141  87.9605 186.1143 0002717  79.1572 280.9870 13.25506502 39055
ONEWEB-0541             
1 55142U 23004C   23280.87087546 -.00000097  00000+0 -30923-3 0  9993
2 55142  87.8976 216.3968 0001882  78.3850 281.7489 13.11411012 37069
ONEWEB-0543             
1 55143U 23004D   23280.91667824 -.00901844  00000+0 -46894+0 0  9992
2 55143  87.0451 174.1954 0004535  33.7881 159.4397 14.17694142  4587
ONEWEB-0544             
1 55144U 23004E   23280.91667824 -.00900600  00000+0 -47339+0 0  9997
2 55144  87.0489 174.1455 0002952  57.0051 100.0074 14.17113386  5697
ONEWEB-0560             
1 55145U 23004F   23280.91667824 -.00895615  00000+0 -45544+0 0  9993
2 55145  87.0388 174.1290 0002367  53.1525 263.3394 14.18867706  5721
ONEWEB-0565             
1 55146U 23004G   23280.91667824 -.00886899  00000+0 -46443+0 0  9997
2 55146  87.0619 174.1336 0002707  52.4771 210.1808 14.17271021  5721
ONEWEB-0567             
1 55147U 23004H   23280.91667824 -.00911196  00000+0 -48844+0 0  9994
2 55147  87.0452 174.1105 0005695  46.2556 130.8545 14.16089657  5651
ONEWEB-0569             
1 55148U 23004J   23280.72075874  .00002741  00000+0  49346-3 0  9999
2 55148  86.5381 171.6972 0004701  61.3104 298.8582 14.66267350 39886
ONEWEB-0570             
1 55149U 23004K   23280.91667824 -.00896389  00000+0 -47752+0 0  9999
2 55149  87.0509 174.1070 0003059  57.0662  19.3768 14.16381568  5639
ONEWEB-0571             
1 55150U 23004L   23280.91667824 -.00935647  00000+0 -48511+0 0  9996
2 55150  87.0400 174.1549 0003323  47.2148 261.4061 14.17963237  5609
ONEWEB-0572             
1 55151U 23004M   23280.84150352  .00000050  00000+0  96308-4 0  9993
2 55151  87.9256 201.2759 0001453  84.6164 275.5133 13.17651217 37981
ONEWEB-0573             
1 55152U 23004N   23280.91667824 -.00882872  00000+0 -46534+0 0  9992
2 55152  87.0458 174.1538 0003976  45.6922 253.8133 14.16906609  5646
ONEWEB-0588             
1 55153U 23004P   23280.91667824 -.00931456  00000+0 -48720+0 0  9995
2 55153  87.0291 174.1774 0006971  42.7023 137.8976 14.17469081  5647
ONEWEB-0598             
1 55154U 23004Q   23280.84652975 -.00000424  00000+0 -12324-2 0  9995
2 55154  87.8974 216.4431 0001711  49.7033 310.4245 13.11417170 37018
ONEWEB-0599             
1 55155U 23004R   23280.80354254  .00000062  00000+0  12593-3 0  9996
2 55155  87.9259 201.2577 0002110  72.0067 288.1294 13.17653785 37980
ONEWEB-0614             
1 55156U 23004S   23280.91794716 -.00000261  00000+0 -77325-3 0  9997
2 55156  87.9002 216.4099 0001965  89.1955 270.9398 13.11421218 36965
ONEWEB-0616             
1 55157U 23004T   23280.84468305  .00000071  00000+0  15172-3 0  9991
2 55157  88.1152 200.6580 0003090  69.5327 290.6136 13.17652467 38207
ONEWEB-0617             
1 55158U 23004U   23280.90659437  .00000310  00000+0  83817-3 0  9994
2 55158  87.8984 216.4266 0001457  96.0830 264.0464 13.11432802 36987
ONEWEB-0618             
1 55159U 23004V   23280.78593748  .00000490  00000+0  19453-3 0  9997
2 55159  86.9162 183.0832 0014844  32.4134 327.7967 14.26719458 39215
ONEWEB-0619             
1 55160U 23004W   23280.80456737 -.00000267  00000+0 -71978-3 0  9992
2 55160  87.9250 201.2571 0002442  91.8239 268.3172 13.17657406 38091
ONEWEB-0620             
1 55161U 23004X   23280.90167918  .00000445  00000+0  12202-2 0  9994
2 55161  87.8994 216.4295 0001256  84.9117 275.2154 13.11432165 36954
ONEWEB-0621             
1 55162U 23004Y   23280.85136129 -.00002733  00000+0 -77470-2 0  9991
2 55162  87.8955 216.4272 0002539  94.4374 265.7044 13.11431088 36925
ONEWEB-0622             
1 55163U 23004Z   23280.85787940 -.00000490  00000+0 -14180-2 0  9992
2 55163  87.8976 216.4355 0001247 106.8646 253.2619 13.11418190 36914
ONEWEB-0623             
1 55164U 23004AA  23280.79827669  .00000022  00000+0  23755-4 0  9998
2 55164  87.9232 201.3249 0001514 107.4566 252.6731 13.17653350 38084
ONEWEB-0624             
1 55165U 23004AB  23280.80938948  .00000437  00000+0  11800-2 0  9990
2 55165  87.9003 186.0975 0002189  79.2576 280.8799 13.12477824 39063
ONEWEB-0625             
1 55166U 23004AC  23280.86155384  .00000063  00000+0  12827-3 0  9998
2 55166  87.9235 201.3098 0002206  79.7101 280.4279 13.17647128 38088
ONEWEB-0626             
1 55167U 23004AD  23280.84890482  .00000062  00000+0  12585-3 0  9992
2 55167  87.9250 201.2998 0001556  59.0428 301.0856 13.17650850 38081
